[{"OBJECT_NAME":"STARLINK-31782","OBJECT_ID":"2024-080F","EPOCH":"2026-03-09T00:10:02.355744","MEAN_MOTION":15.27579787,"ECCENTRICITY":0.00012659,"INCLINATION":43.0026,"RA_OF_ASC_NODE":45.6133,"ARG_OF_PERICENTER":267.9937,"MEAN_ANOMALY":92.077,"EPHEMERIS_TYPE":0,"CLASSIFICATION_TYPE":"U","NORAD_CAT_ID":59606,"ELEMENT_SET_NO":999,"REV_AT_EPOCH":10438,"BSTAR":2.8974584e-5,"MEAN_MOTION_DOT":5.35e-6,"MEAN_MOTION_DDOT":0},{"OBJECT_NAME":"EDISON-1","OBJECT_ID":"2025-009B","EPOCH":"2026-03-09T19:16:13.822464","MEAN_MOTION":15.29042904,"ECCENTRICITY":0.00043285,"INCLINATION":97.4042,"RA_OF_ASC_NODE":151.6286,"ARG_OF_PERICENTER":306.4185,"MEAN_ANOMALY":53.6655,"EPHEMERIS_TYPE":0,"CLASSIFICATION_TYPE":"U","NORAD_CAT_ID":62610,"ELEMENT_SET_NO":999,"REV_AT_EPOCH":6375,"BSTAR":0.00052814963,"MEAN_MOTION_DOT":0.00014835,"MEAN_MOTION_DDOT":0}]
